[{"OBJECT_NAME":"OBJECT W","OBJECT_ID":"2023-081W","EPOCH":"2026-03-09T22:48:59.769792","MEAN_MOTION":15.23580425,"ECCENTRICITY":0.00107253,"INCLINATION":97.3003,"RA_OF_ASC_NODE":135.1211,"ARG_OF_PERICENTER":10.0781,"MEAN_ANOMALY":350.0669,"EPHEMERIS_TYPE":0,"CLASSIFICATION_TYPE":"U","NORAD_CAT_ID":56866,"ELEMENT_SET_NO":999,"REV_AT_EPOCH":15291,"BSTAR":0.0003543564,"MEAN_MOTION_DOT":8.423e-5,"MEAN_MOTION_DDOT":0},{"OBJECT_NAME":"TITAN 3C TRANSTAGE DEB","OBJECT_ID":"1965-082EY","EPOCH":"2026-03-09T01:33:52.493760","MEAN_MOTION":15.22433287,"ECCENTRICITY":0.00129834,"INCLINATION":32.0932,"RA_OF_ASC_NODE":327.1819,"ARG_OF_PERICENTER":169.7698,"MEAN_ANOMALY":190.323,"EPHEMERIS_TYPE":0,"CLASSIFICATION_TYPE":"U","NORAD_CAT_ID":1883,"ELEMENT_SET_NO":999,"REV_AT_EPOCH":25002,"BSTAR":0.00039349355,"MEAN_MOTION_DOT":9.436e-5,"MEAN_MOTION_DDOT":0}]
